GLOBALSTAR M063         
1 26081U 00008A   24284.07852367 -.00000015  00000+0  98482-3 0  9993
2 26081  51.9971  50.2604 0004871 183.7905 347.4389 11.86161098127965
GLOBALSTAR M062         
1 26082U 00008B   24283.99561111 -.00000042  00000+0  40202-3 0  9995
2 26082  51.9827 111.5100 0006159 302.6952 223.0592 12.43450100127990
GLOBALSTAR M060         
1 26083U 00008C   24283.62483535  .00000016  00000+0  10590-2 0  9995
2 26083  52.0044  37.1584 0002836 346.1406 115.4653 12.17646552121847
GLOBALSTAR M064         
1 26084U 00008D   24284.03062388 -.00000063  00000+0  28444-3 0  9992
2 26084  52.0011 152.1684 0001070 334.7936  25.2844 11.88523754137461
GLOBALSTAR M065         
1 31571U 07020A   24284.25641105 -.00000026  00000+0  43465-3 0  9993
2 31571  51.9883 266.9632 0010201 110.7558 262.8795 12.61981117802150
GLOBALSTAR M069         
1 31573U 07020C   24283.56104926 -.00000035  00000+0  39400-3 0  9997
2 31573  51.9941 225.4280 0000889  19.4855 152.9901 12.58767165802881
GLOBALSTAR M072         
1 31574U 07020D   24283.85908793 -.00000036  00000+0  37621-3 0  9998
2 31574  52.0095 319.9022 0000252 161.1544  10.1297 12.62265965801205
GLOBALSTAR M071         
1 31576U 07020F   24284.17111890 -.00000036  00000+0  37777-3 0  9992
2 31576  52.0058 228.1613 0000991 347.0917  25.4746 12.62259134802897
